{
  "type": "FeatureCollection",
  "features": [
    {
      "type": "Feature",
      "properties": {
        "norad_id": 33822,
        "name": "COSMOS 2251 DEB",
        "group": "cosmos-2251-debris",
        "lat": 67.71971829588159,
        "lon": -12.025827774432727,
        "alt_km": 942.9487752899286,
        "timestamp": "2025-12-02T06:27:53.404109+00:00",
        "meta_object_name": "COSMOS 2251 DEB",
        "meta_object_id": "1993-036BP",
        "meta_epoch": "2025-12-01T18:23:33.511776",
        "meta_mean_motion": 14.12983585,
        "meta_eccentricity": 0.0154026,
        "meta_inclination": 74.0702,
        "meta_ra_of_asc_node": 213.0524,
        "meta_arg_of_pericenter": 261.9087,
        "meta_mean_anomaly": 166.9235,
        "meta_ephemeris_type": 0,
        "meta_classification_type": "U",
        "meta_norad_cat_id": 33822,
        "meta_element_set_no": 999,
        "meta_rev_at_epoch": 85899,
        "meta_bstar": 0.001303,
        "meta_mean_motion_dot": 2.694e-05,
        "meta_mean_motion_ddot": 0,
        "tle_line1": "1 33822U 93036BP  25335.76636009  .00002694  00000+0  13030-2 0  9993",
        "tle_line2": "2 33822  74.0702 213.0524 0154026 261.9087 166.9235 14.12983585858995"
      },
      "geometry": {
        "type": "Point",
        "coordinates": [
          -12.025827774432727,
          67.71971829588159
        ]
      }
    },
    {
      "type": "Feature",
      "properties": {
        "norad_id": 33823,
        "name": "COSMOS 2251 DEB",
        "group": "cosmos-2251-debris",
        "lat": 71.10132102044511,
        "lon": -70.3875295007971,
        "alt_km": 1037.4358062134506,
        "timestamp": "2025-12-02T06:27:53.404119+00:00",
        "meta_object_name": "COSMOS 2251 DEB",
        "meta_object_id": "1993-036BQ",
        "meta_epoch": "2025-12-01T19:48:15.825024",
        "meta_mean_motion": 13.98906307,
        "meta_eccentricity": 0.0209247,
        "meta_inclination": 73.8087,
        "meta_ra_of_asc_node": 168.4582,
        "meta_arg_of_pericenter": 295.3796,
        "meta_mean_anomaly": 87.7609,
        "meta_ephemeris_type": 0,
        "meta_classification_type": "U",
        "meta_norad_cat_id": 33823,
        "meta_element_set_no": 999,
        "meta_rev_at_epoch": 85457,
        "meta_bstar": 0.00076586,
        "meta_mean_motion_dot": 1.306e-05,
        "meta_mean_motion_ddot": 0,
        "tle_line1": "1 33823U 93036BQ  25335.82518316  .00001306  00000+0  76586-3 0  9996",
        "tle_line2": "2 33823  73.8087 168.4582 0209247 295.3796  87.7609 13.98906307854575"
      },
      "geometry": {
        "type": "Point",
        "coordinates": [
          -70.3875295007971,
          71.10132102044511
        ]
      }
    },
    {
      "type": "Feature",
      "properties": {
        "norad_id": 33825,
        "name": "COSMOS 2251 DEB",
        "group": "cosmos-2251-debris",
        "lat": -32.31253875385582,
        "lon": 37.68292403955391,
        "alt_km": 630.9985304656193,
        "timestamp": "2025-12-02T06:27:53.404129+00:00",
        "meta_object_name": "COSMOS 2251 DEB",
        "meta_object_id": "1993-036BS",
        "meta_epoch": "2025-12-01T14:48:30.818304",
        "meta_mean_motion": 14.69600165,
        "meta_eccentricity": 0.00840116,
        "meta_inclination": 73.986,
        "meta_ra_of_asc_node": 49.4162,
        "meta_arg_of_pericenter": 19.2959,
        "meta_mean_anomaly": 97.9176,
        "meta_ephemeris_type": 0,
        "meta_classification_type": "U",
        "meta_norad_cat_id": 33825,
        "meta_element_set_no": 999,
        "meta_rev_at_epoch": 88716,
        "meta_bstar": 0.00080099765,
        "meta_mean_motion_dot": 4.995e-05,
        "meta_mean_motion_ddot": 0,
        "tle_line1": "1 33825U 93036BS  25335.61702336  .00004995  00000+0  80100-3 0  9996",
        "tle_line2": "2 33825  73.9860  49.4162 0084011  19.2959  97.9176 14.69600165887168"
      },
      "geometry": {
        "type": "Point",
        "coordinates": [
          37.68292403955391,
          -32.31253875385582
        ]
      }
    },
    {
      "type": "Feature",
      "properties": {
        "norad_id": 33826,
        "name": "COSMOS 2251 DEB",
        "group": "cosmos-2251-debris",
        "lat": 2.2335173152061825,
        "lon": -111.08032447761958,
        "alt_km": 692.9366515343972,
        "timestamp": "2025-12-02T06:27:53.404139+00:00",
        "meta_object_name": "COSMOS 2251 DEB",
        "meta_object_id": "1993-036BT",
        "meta_epoch": "2025-12-01T15:04:25.179744",
        "meta_mean_motion": 14.5152774,
        "meta_eccentricity": 0.00845243,
        "meta_inclination": 74.0648,
        "meta_ra_of_asc_node": 70.7629,
        "meta_arg_of_pericenter": 118.5426,
        "meta_mean_anomaly": 308.4318,
        "meta_ephemeris_type": 0,
        "meta_classification_type": "U",
        "meta_norad_cat_id": 33826,
        "meta_element_set_no": 999,
        "meta_rev_at_epoch": 87608,
        "meta_bstar": 0.0016940342,
        "meta_mean_motion_dot": 7.077e-05,
        "meta_mean_motion_ddot": 0,
        "tle_line1": "1 33826U 93036BT  25335.62806921  .00007077  00000+0  16940-2 0  9997",
        "tle_line2": "2 33826  74.0648  70.7629 0084524 118.5426 308.4318 14.51527740876086"
      },
      "geometry": {
        "type": "Point",
        "coordinates": [
          -111.08032447761958,
          2.2335173152061825
        ]
      }
    },
    {
      "type": "Feature",
      "properties": {
        "norad_id": 33828,
        "name": "COSMOS 2251 DEB",
        "group": "cosmos-2251-debris",
        "lat": -10.065998960603366,
        "lon": -105.35188899766325,
        "alt_km": 728.3690289896886,
        "timestamp": "2025-12-02T06:27:53.404150+00:00",
        "meta_object_name": "COSMOS 2251 DEB",
        "meta_object_id": "1993-036BV",
        "meta_epoch": "2025-12-01T20:49:22.356768",
        "meta_mean_motion": 14.44268826,
        "meta_eccentricity": 0.0029271,
        "meta_inclination": 74.0472,
        "meta_ra_of_asc_node": 258.3053,
        "meta_arg_of_pericenter": 332.967,
        "meta_mean_anomaly": 88.5833,
        "meta_ephemeris_type": 0,
        "meta_classification_type": "U",
        "meta_norad_cat_id": 33828,
        "meta_element_set_no": 999,
        "meta_rev_at_epoch": 88156,
        "meta_bstar": 0.00057317,
        "meta_mean_motion_dot": 1.954e-05,
        "meta_mean_motion_ddot": 0,
        "tle_line1": "1 33828U 93036BV  25335.86761987  .00001954  00000+0  57317-3 0  9999",
        "tle_line2": "2 33828  74.0472 258.3053 0029271 332.9670  88.5833 14.44268826881565"
      },
      "geometry": {
        "type": "Point",
        "coordinates": [
          -105.35188899766325,
          -10.065998960603366
        ]
      }
    },
    {
      "type": "Feature",
      "properties": {
        "norad_id": 33830,
        "name": "COSMOS 2251 DEB",
        "group": "cosmos-2251-debris",
        "lat": 71.99048259008809,
        "lon": -47.38524365832471,
        "alt_km": 621.5959165294171,
        "timestamp": "2025-12-02T06:27:53.404160+00:00",
        "meta_object_name": "COSMOS 2251 DEB",
        "meta_object_id": "1993-036BX",
        "meta_epoch": "2025-12-01T20:36:31.837248",
        "meta_mean_motion": 14.76658066,
        "meta_eccentricity": 0.0042104,
        "meta_inclination": 74.033,
        "meta_ra_of_asc_node": 251.6939,
        "meta_arg_of_pericenter": 14.1115,
        "meta_mean_anomaly": 44.8515,
        "meta_ephemeris_type": 0,
        "meta_classification_type": "U",
        "meta_norad_cat_id": 33830,
        "meta_element_set_no": 999,
        "meta_rev_at_epoch": 89311,
        "meta_bstar": 0.0010806,
        "meta_mean_motion_dot": 7.641e-05,
        "meta_mean_motion_ddot": 0,
        "tle_line1": "1 33830U 93036BX  25335.85870182  .00007641  00000+0  10806-2 0  9999",
        "tle_line2": "2 33830  74.0330 251.6939 0042104  14.1115  44.8515 14.76658066893113"
      },
      "geometry": {
        "type": "Point",
        "coordinates": [
          -47.38524365832471,
          71.99048259008809
        ]
      }
    },
    {
      "type": "Feature",
      "properties": {
        "norad_id": 33832,
        "name": "COSMOS 2251 DEB",
        "group": "cosmos-2251-debris",
        "lat": 22.452316363341136,
        "lon": -123.26659595393303,
        "alt_km": 700.3588352403185,
        "timestamp": "2025-12-02T06:27:53.404170+00:00",
        "meta_object_name": "COSMOS 2251 DEB",
        "meta_object_id": "1993-036BZ",
        "meta_epoch": "2025-12-01T19:07:56.569728",
        "meta_mean_motion": 14.60415641,
        "meta_eccentricity": 0.0025775,
        "meta_inclination": 74.0549,
        "meta_ra_of_asc_node": 230.8486,
        "meta_arg_of_pericenter": 264.0269,
        "meta_mean_anomaly": 157.7286,
        "meta_ephemeris_type": 0,
        "meta_classification_type": "U",
        "meta_norad_cat_id": 33832,
        "meta_element_set_no": 999,
        "meta_rev_at_epoch": 88265,
        "meta_bstar": 0.0013405,
        "meta_mean_motion_dot": 6.498e-05,
        "meta_mean_motion_ddot": 0,
        "tle_line1": "1 33832U 93036BZ  25335.79718252  .00006498  00000+0  13405-2 0  9990",
        "tle_line2": "2 33832  74.0549 230.8486 0025775 264.0269 157.7286 14.60415641882653"
      },
      "geometry": {
        "type": "Point",
        "coordinates": [
          -123.26659595393303,
          22.452316363341136
        ]
      }
    }
  ]
}